{"type": "FeatureCollection", "features": [ {"type": "Feature", "properties": {"norad_id": 44622, "name": "GAOFEN-10R", "group": "resource", "lat": -7.596854306817472, "lon": 110.27563722021807, "alt_km": 628.6804918334346, "timestamp": "2025-12-09T20:37:08.939444+00:00", "meta": {"OBJECT_NAME": "GAOFEN-10R", "OBJECT_ID": "2019-066A", "EPOCH": "2025-12-09T14:55:04.179360", "MEAN_MOTION": 14.82775768, "ECCENTRICITY": 0.00080305, "INCLINATION": 98.0276, "RA_OF_ASC_NODE": 291.1157, "ARG_OF_PERICENTER": 50.6583, "MEAN_ANOMALY": 309.534, "EPHEMERIS_TYPE": 0, "CLASSIFICATION_TYPE": "U", "NORAD_CAT_ID": 44622, "ELEMENT_SET_NO": 999, "REV_AT_EPOCH": 33428, "BSTAR": 0.00036600382, "MEAN_MOTION_DOT": 2.906e-05, "MEAN_MOTION_DDOT": 0}, "tle": {"line1": "1 44622U 19066A   25343.62157615  .00002906  00000+0  36600-3 0  9994", "line2": "2 44622  98.0276 291.1157 0008030  50.6583 309.5340 14.82775768334285"}}, "geometry": {"type": "Point", "coordinates": [110.27563722021807, -7.596854306817472]}}, {"type": "Feature", "properties": {"norad_id": 44804, "name": "CARTOSAT-3", "group": "resource", "lat": -26.844181946333354, "lon": 47.28051776560929, "alt_km": 518.8214229528303, "timestamp": "2025-12-09T20:37:08.939454+00:00", "meta": {"OBJECT_NAME": "CARTOSAT-3", "OBJECT_ID": "2019-081A", "EPOCH": "2025-12-09T14:24:56.338848", "MEAN_MOTION": 15.193308, "ECCENTRICITY": 0.00139646, "INCLINATION": 97.4581, "RA_OF_ASC_NODE": 43.2238, "ARG_OF_PERICENTER": 96.4058, "MEAN_ANOMALY": 263.8767, "EPHEMERIS_TYPE": 0, "CLASSIFICATION_TYPE": "U", "NORAD_CAT_ID": 44804, "ELEMENT_SET_NO": 999, "REV_AT_EPOCH": 33468, "BSTAR": 0.00036073221, "MEAN_MOTION_DOT": 7.573e-05, "MEAN_MOTION_DDOT": 0}, "tle": {"line1": "1 44804U 19081A   25343.60065207  .00007573  00000+0  36073-3 0  9995", "line2": "2 44804  97.4581  43.2238 0013964  96.4058 263.8767 15.19330800334686"}}, "geometry": {"type": "Point", "coordinates": [47.28051776560929, -26.844181946333354]}}, {"type": "Feature", "properties": {"norad_id": 44819, "name": "GAOFEN-12 01", "group": "resource", "lat": 62.29361781917148, "lon": -174.62818680495926, "alt_km": 621.8174876710173, "timestamp": "2025-12-09T20:37:08.939464+00:00", "meta": {"OBJECT_NAME": "GAOFEN-12 01", "OBJECT_ID": "2019-082A", "EPOCH": "2025-12-09T15:13:42.659328", "MEAN_MOTION": 14.80652058, "ECCENTRICITY": 0.00012018, "INCLINATION": 97.8127, "RA_OF_ASC_NODE": 349.997, "ARG_OF_PERICENTER": 253.8827, "MEAN_ANOMALY": 106.2253, "EPHEMERIS_TYPE": 0, "CLASSIFICATION_TYPE": "U", "NORAD_CAT_ID": 44819, "ELEMENT_SET_NO": 999, "REV_AT_EPOCH": 32604, "BSTAR": 0.00012589944, "MEAN_MOTION_DOT": 9.16e-06, "MEAN_MOTION_DDOT": 0}, "tle": {"line1": "1 44819U 19082A   25343.63452152  .00000916  00000+0  12590-3 0  9996", "line2": "2 44819  97.8127 349.9970 0001201 253.8827 106.2253 14.80652058326045"}}, "geometry": {"type": "Point", "coordinates": [-174.62818680495926, 62.29361781917148]}}, {"type": "Feature", "properties": {"norad_id": 44873, "name": "CSG-1", "group": "resource", "lat": -31.72938886160914, "lon": -19.68672447393013, "alt_km": 629.2279905696669, "timestamp": "2025-12-09T20:37:08.939474+00:00", "meta": {"OBJECT_NAME": "CSG-1", "OBJECT_ID": "2019-092A", "EPOCH": "2025-12-09T14:48:18.419904", "MEAN_MOTION": 14.82158017, "ECCENTRICITY": 0.00014558, "INCLINATION": 97.8811, "RA_OF_ASC_NODE": 164.9881, "ARG_OF_PERICENTER": 85.4565, "MEAN_ANOMALY": 274.6814, "EPHEMERIS_TYPE": 0, "CLASSIFICATION_TYPE": "U", "NORAD_CAT_ID": 44873, "ELEMENT_SET_NO": 999, "REV_AT_EPOCH": 32339, "BSTAR": 0.00015160504, "MEAN_MOTION_DOT": 1.155e-05, "MEAN_MOTION_DDOT": 0}, "tle": {"line1": "1 44873U 19092A   25343.61687986  .00001155  00000+0  15161-3 0  9993", "line2": "2 44873  97.8811 164.9881 0001455  85.4565 274.6814 14.82158017323396"}}, "geometry": {"type": "Point", "coordinates": [-19.68672447393013, -31.72938886160914]}}, {"type": "Feature", "properties": {"norad_id": 46277, "name": "NEMO-HD", "group": "resource", "lat": 50.28683332077269, "lon": -128.22577460616597, "alt_km": 440.40041901790755, "timestamp": "2025-12-09T20:37:08.939484+00:00", "meta": {"OBJECT_NAME": "NEMO-HD", "OBJECT_ID": "2020-061F", "EPOCH": "2025-12-09T15:22:59.141856", "MEAN_MOTION": 15.40225303, "ECCENTRICITY": 0.00020678, "INCLINATION": 97.2211, "RA_OF_ASC_NODE": 42.7782, "ARG_OF_PERICENTER": 60.0292, "MEAN_ANOMALY": 300.116, "EPHEMERIS_TYPE": 0, "CLASSIFICATION_TYPE": "U", "NORAD_CAT_ID": 46277, "ELEMENT_SET_NO": 999, "REV_AT_EPOCH": 29276, "BSTAR": 0.00037052428, "MEAN_MOTION_DOT": 0.00014822, "MEAN_MOTION_DDOT": 0}, "tle": {"line1": "1 46277U 20061F   25343.64096229  .00014822  00000+0  37052-3 0  9996", "line2": "2 46277  97.2211  42.7782 0002067  60.0292 300.1160 15.40225303292766"}}, "geometry": {"type": "Point", "coordinates": [-128.22577460616597, 50.28683332077269]}}, {"type": "Feature", "properties": {"norad_id": 46984, "name": "SENTINEL-6A", "group": "resource", "lat": 38.59359900296044, "lon": -32.49468322283137, "alt_km": 1337.8721264564383, "timestamp": "2025-12-09T20:37:08.939495+00:00", "meta": {"OBJECT_NAME": "SENTINEL-6A", "OBJECT_ID": "2020-086A", "EPOCH": "2025-12-09T10:32:14.333856", "MEAN_MOTION": 12.80930517, "ECCENTRICITY": 0.0007737, "INCLINATION": 66.0391, "RA_OF_ASC_NODE": 169.164, "ARG_OF_PERICENTER": 269.2403, "MEAN_ANOMALY": 90.7726, "EPHEMERIS_TYPE": 0, "CLASSIFICATION_TYPE": "U", "NORAD_CAT_ID": 46984, "ELEMENT_SET_NO": 999, "REV_AT_EPOCH": 23602, "BSTAR": 6.2321862e-05, "MEAN_MOTION_DOT": -4.7e-07, "MEAN_MOTION_DDOT": 0}, "tle": {"line1": "1 46984U 20086A   25343.43905479 -.00000047  00000+0  62322-4 0  9995", "line2": "2 46984  66.0391 169.1640 0007737 269.2403  90.7726 12.80930517236025"}}, "geometry": {"type": "Point", "coordinates": [-32.49468322283137, 38.59359900296044]}}, {"type": "Feature", "properties": {"norad_id": 48079, "name": "GAOFEN-12 02", "group": "resource", "lat": 51.51459617433917, "lon": 168.0490383175271, "alt_km": 620.1864548049471, "timestamp": "2025-12-09T20:37:08.939506+00:00", "meta": {"OBJECT_NAME": "GAOFEN-12 02", "OBJECT_ID": "2021-026A", "EPOCH": "2025-12-09T15:10:44.300352", "MEAN_MOTION": 14.80669698, "ECCENTRICITY": 0.00034693, "INCLINATION": 97.9851, "RA_OF_ASC_NODE": 337.6539, "ARG_OF_PERICENTER": 107.091, "MEAN_ANOMALY": 253.0682, "EPHEMERIS_TYPE": 0, "CLASSIFICATION_TYPE": "U", "NORAD_CAT_ID": 48079, "ELEMENT_SET_NO": 999, "REV_AT_EPOCH": 25371, "BSTAR": 0.00013055797, "MEAN_MOTION_DOT": 9.51e-06, "MEAN_MOTION_DDOT": 0}, "tle": {"line1": "1 48079U 21026A   25343.63245718  .00000951  00000+0  13056-3 0  9994", "line2": "2 48079  97.9851 337.6539 0003469 107.0910 253.0682 14.80669698253716"}}, "geometry": {"type": "Point", "coordinates": [168.0490383175271, 51.51459617433917]}}, {"type": "Feature", "properties": {"norad_id": 48268, "name": "PLEIADES NEO 3", "group": "resource", "lat": -4.432692461122168, "lon": -124.27474478830098, "alt_km": 627.6421208474858, "timestamp": "2025-12-09T20:37:08.939518+00:00", "meta": {"OBJECT_NAME": "PLEIADES NEO 3", "OBJECT_ID": "2021-034A", "EPOCH": "2025-12-08T17:51:26.688096", "MEAN_MOTION": 14.81674889, "ECCENTRICITY": 0.00013213, "INCLINATION": 97.8951, "RA_OF_ASC_NODE": 55.2426, "ARG_OF_PERICENTER": 96.866, "MEAN_ANOMALY": 263.2703, "EPHEMERIS_TYPE": 0, "CLASSIFICATION_TYPE": "U", "NORAD_CAT_ID": 48268, "ELEMENT_SET_NO": 999, "REV_AT_EPOCH": 24945, "BSTAR": 2.6372942e-05, "MEAN_MOTION_DOT": 1.55e-06, "MEAN_MOTION_DDOT": 0}, "tle": {"line1": "1 48268U 21034A   25342.74405889  .00000155  00000+0  26373-4 0  9994", "line2": "2 48268  97.8951  55.2426 0001321  96.8660 263.2703 14.81674889249458"}}, "geometry": {"type": "Point", "coordinates": [-124.27474478830098, -4.432692461122168]}}, {"type": "Feature", "properties": {"norad_id": 49070, "name": "PLEIADES NEO 4", "group": "resource", "lat": 4.2414389114305155, "lon": 55.747685328003385, "alt_km": 626.3767318648688, "timestamp": "2025-12-09T20:37:08.939529+00:00", "meta": {"OBJECT_NAME": "PLEIADES NEO 4", "OBJECT_ID": "2021-073E", "EPOCH": "2025-12-09T14:07:00.443712", "MEAN_MOTION": 14.81679595, "ECCENTRICITY": 0.00013628, "INCLINATION": 97.8947, "RA_OF_ASC_NODE": 56.0703, "ARG_OF_PERICENTER": 89.0853, "MEAN_ANOMALY": 271.0516, "EPHEMERIS_TYPE": 0, "CLASSIFICATION_TYPE": "U", "NORAD_CAT_ID": 49070, "ELEMENT_SET_NO": 999, "REV_AT_EPOCH": 23329, "BSTAR": 7.8727567e-05, "MEAN_MOTION_DOT": 5.68e-06, "MEAN_MOTION_DDOT": 0}, "tle": {"line1": "1 49070U 21073E   25343.58819958  .00000568  00000+0  78728-4 0  9997", "line2": "2 49070  97.8947  56.0703 0001362  89.0853 271.0516 14.81679595233298"}}, "geometry": {"type": "Point", "coordinates": [55.747685328003385, 4.2414389114305155]}}, {"type": "Feature", "properties": {"norad_id": 49260, "name": "LANDSAT 9", "group": "resource", "lat": -80.18398372706828, "lon": 108.5688130767156, "alt_km": 710.5985551236281, "timestamp": "2025-12-09T20:37:08.939539+00:00", "meta": {"OBJECT_NAME": "LANDSAT 9", "OBJECT_ID": "2021-088A", "EPOCH": "2025-12-09T11:07:07.369536", "MEAN_MOTION": 14.57125619, "ECCENTRICITY": 0.00011158, "INCLINATION": 98.2098, "RA_OF_ASC_NODE": 51.6218, "ARG_OF_PERICENTER": 94.4742, "MEAN_ANOMALY": 265.6584, "EPHEMERIS_TYPE": 0, "CLASSIFICATION_TYPE": "U", "NORAD_CAT_ID": 49260, "ELEMENT_SET_NO": 999, "REV_AT_EPOCH": 22337, "BSTAR": 0.00019721256, "MEAN_MOTION_DOT": 8.44e-06, "MEAN_MOTION_DDOT": 0}, "tle": {"line1": "1 49260U 21088A   25343.46327974  .00000844  00000+0  19721-3 0  9997", "line2": "2 49260  98.2098  51.6218 0001115  94.4742 265.6584 14.57125619223374"}}, "geometry": {"type": "Point", "coordinates": [108.5688130767156, -80.18398372706828]}}]}